BEIDOU-2 IGSO-1 (C06)   
1 36828U 10036A   24283.63715241 -.00000105  00000+0  00000+0 0  9990
2 36828  54.2541 168.5347 0040800 203.4553 340.3899  1.00249298 52039
BEIDOU-2 G4 (C04)       
1 37210U 10057A   24284.54975014 -.00000106  00000+0  00000+0 0  9997
2 37210   2.1201  69.7953 0008164 165.9304 141.9250  1.00270780 51123
BEIDOU-2 IGSO-2 (C07)   
1 37256U 10068A   24283.92411831 -.00000168  00000+0  00000+0 0  9990
2 37256  48.6720 279.4189 0039895 218.5949 321.4072  1.00266218 50622
BEIDOU-2 IGSO-3 (C08)   
1 37384U 11013A   24284.28149081 -.00000166  00000+0  00000+0 0  9996
2 37384  61.5267  46.0079 0032653 176.5830   5.9888  1.00279849 49493
BEIDOU-2 IGSO-4 (C09)   
1 37763U 11038A   24282.71917615 -.00000046  00000+0  00000+0 0  9993
2 37763  54.5599 171.1788 0129008 228.9566 332.0280  1.00284373 48464
BEIDOU-2 IGSO-5 (C10)   
1 37948U 11073A   24283.96716110 -.00000113  00000+0  00000+0 0  9997
2 37948  48.8061 279.1126 0102667 222.1296 321.8610  1.00266843 46960
BEIDOU-2 G5 (C05)       
1 38091U 12008A   24284.55803115  .00000061  00000+0  00000+0 0  9995
2 38091   2.0398  70.6026 0007423 221.6360 347.1036  1.00274603 46201
BEIDOU-2 M3 (C11)       
1 38250U 12018A   24283.84089844 -.00000043  00000+0  00000+0 0  9990
2 38250  56.2573 325.5230 0025093 263.0150  96.7631  1.86233531 84482
BEIDOU-2 M4 (C12)       
1 38251U 12018B   24283.77101075 -.00000042  00000+0  00000+0 0  9993
2 38251  56.1632 324.7883 0015962 263.4365  96.4449  1.86231951 84487
BEIDOU-2 M6 (C14)       
1 38775U 12050B   24284.01751766  .00000043  00000+0  00000+0 0  9996
2 38775  56.0084  83.3277 0010630 348.0985  11.8962  1.86231050 81857
BEIDOU-2 G6 (C02)       
1 38953U 12059A   24284.56298333 -.00000170  00000+0  00000+0 0  9991
2 38953   2.8493  79.5377 0006503 306.3605 280.4503  1.00274480 43747
BEIDOU-3S IGSO-1S (C31) 
1 40549U 15019A   24284.02271623 -.00000150  00000+0  00000+0 0  9996
2 40549  50.3607 302.8325 0036295 198.4309 342.8781  1.00279874 34904
BEIDOU-3S M2S (C58)     
1 40748U 15037A   24283.43404158 -.00000042  00000+0  00000+0 0  9992
2 40748  55.3921 323.1484 0012974 252.0395 107.8805  1.86229122 62655
BEIDOU-3S M1S (C57)     
1 40749U 15037B   24284.24386662 -.00000038  00000+0  00000+0 0  9997
2 40749  55.3940 323.1073 0003514 314.5645  45.4687  1.86227575 62670
BEIDOU-3S IGSO-2S (C56) 
1 40938U 15053A   24284.42232394 -.00000109  00000+0  00000+0 0  9996
2 40938  50.1838 266.0570 0052554 190.3305 171.6478  1.00280084 33192
BEIDOU-2 IGSO-6 (C13)   
1 41434U 16021A   24283.81334117 -.00000139  00000+0  00000+0 0  9995
2 41434  59.3526  44.2024 0053840 222.3795 139.7180  1.00292300 31318
BEIDOU-2 G7 (C03)       
1 41586U 16037A   24284.49678044 -.00000349  00000+0  00000+0 0  9998
2 41586   1.6515  66.2796 0007381 353.5408 249.0705  1.00277808   726
BEIDOU-3 M1 (C19)       
1 43001U 17069A   24284.32036759  .00000046  00000+0  00000+0 0  9994
2 43001  56.1585  83.4297 0007085 303.4788  56.4742  1.86231316 47152
BEIDOU-3 M2 (C20)       
1 43002U 17069B   24283.72092866  .00000041  00000+0  00000+0 0  9994
2 43002  56.1573  83.4851 0005349 342.3211  17.6796  1.86230952 47131
BEIDOU-3 M7 (C27)       
1 43107U 18003A   24284.00597951 -.00000042  00000+0  00000+0 0  9998
2 43107  54.8500 323.6694 0002337  81.6498 278.4382  1.86232447 45890
BEIDOU-3 M8 (C28)       
1 43108U 18003B   24283.94737135 -.00000042  00000+0  00000+0 0  9991
2 43108  54.8430 323.6564 0005054 255.8889 104.1163  1.86230896 45907
BEIDOU-3 M4 (C22)       
1 43207U 18018A   24284.38848062  .00000046  00000+0  00000+0 0  9991
2 43207  56.1171  83.5126 0004367  30.3766 329.6696  1.86231241 45298
BEIDOU-3 M3 (C21)       
1 43208U 18018B   24283.91815871  .00000043  00000+0  00000+0 0  9999
2 43208  56.1162  83.5326 0004910 323.7049  36.2817  1.86231257 45280
BEIDOU-3 M9 (C29)       
1 43245U 18029A   24281.99060902 -.00000048  00000+0  00000+0 0  9991
2 43245  54.7316 321.4363 0002186 244.7909 115.2466  1.86232772 44405
BEIDOU-3 M10 (C30)      
1 43246U 18029B   24284.06791075 -.00000037  00000+0  00000+0 0  9993
2 43246  54.7271 321.3913 0002970 343.6931  16.3575  1.86232871 44425
BEIDOU-2 IGSO-7 (C16)   
1 43539U 18057A   24284.40847979 -.00000127  00000+0  00000+0 0  9992
2 43539  55.1472 168.3861 0077986 232.9107 238.5798  1.00276757 22971
BEIDOU-3 M5 (C23)       
1 43581U 18062A   24284.29263357  .00000008  00000+0  00000+0 0  9991
2 43581  54.1201 203.2172 0003568 301.6528  58.3409  1.86228698 42184
BEIDOU-3 M6 (C24)       
1 43582U 18062B   24284.15788677  .00000009  00000+0  00000+0 0  9995
2 43582  54.1198 203.2113 0005954  21.7297 338.3243  1.86229801 42183
BEIDOU-3 M12 (C26)      
1 43602U 18067A   24284.09122398  .00000009  00000+0  00000+0 0  9998
2 43602  54.2109 201.9052 0007914  26.6152 333.4565  1.86227662 41666
BEIDOU-3 M11 (C25)      
1 43603U 18067B   24284.22458881  .00000008  00000+0  00000+0 0  9992
2 43603  54.2081 201.8654 0004669  17.2999 342.7469  1.86227146 41698
BEIDOU-3 M13 (C32)      
1 43622U 18072A   24284.18611857  .00000044  00000+0  00000+0 0  9998
2 43622  56.0892  83.0466 0003895 300.9619  59.0198  1.86231263 41200
BEIDOU-3 M14 (C33)      
1 43623U 18072B   24284.58853484  .00000047  00000+0  00000+0 0  9990
2 43623  56.0912  83.0266 0002498   4.0404 355.9824  1.86231257 41201
BEIDOU-3 M16 (C35)      
1 43647U 18078A   24284.21366492 -.00000037  00000+0  00000+0 0  9990
2 43647  54.6260 321.4478 0005968   9.4464 350.6251  1.86232240 40704
BEIDOU-3 M15 (C34)      
1 43648U 18078B   24283.80583871 -.00000039  00000+0  00000+0 0  9999
2 43648  54.6221 321.4644 0002619   8.3716 351.6927  1.86232235 40711
BEIDOU-3 G1 (C59)       
1 43683U 18085A   24284.53799486 -.00000272  00000+0  00000+0 0  9997
2 43683   2.4707 105.3795 0002627  30.0034 217.9837  1.00274902 21895
BEIDOU-3 M17 (C36)      
1 43706U 18093A   24282.34685015  .00000021  00000+0  00000+0 0  9992
2 43706  54.2033 203.2301 0008576 291.1935  68.7455  1.86228409 40038
BEIDOU-3 M18 (C37)      
1 43707U 18093B   24283.28517494  .00000015  00000+0  00000+0 0  9995
2 43707  54.2039 203.1901 0007358 323.2017  36.7782  1.86229924 40069
BEIDOU-3 IGSO-1 (C38)   
1 44204U 19023A   24283.74494123 -.00000200  00000+0  00000+0 0  9993
2 44204  57.8145  44.0322 0024737 206.8864 155.2795  1.00267176  1047
BEIDOU-2 G8 (C01)       
1 44231U 19027A   24284.53606074 -.00000242  00000+0  00000+0 0  9991
2 44231   1.7580  74.4594 0003535 184.7359  97.9857  1.00271493 19915
BEIDOU-3 IGSO-2 (C39)   
1 44337U 19035A   24284.30631091 -.00000126  00000+0  00000+0 0  9990
2 44337  55.1819 164.2615 0034707 201.7505 241.9719  1.00261329 19500
BEIDOU-3 M24 (C46)      
1 44542U 19061A   24282.28113049  .00000021  00000+0  00000+0 0  9993
2 44542  54.4310 203.5408 0008624 359.9563   0.0735  1.86229424 34303
BEIDOU-3 M23 (C45)      
1 44543U 19061B   24282.60351913  .00000020  00000+0  00000+0 0  9993
2 44543  54.4296 203.4989 0005599 348.9496 139.7966  1.86229618 34302
BEIDOU-3 IGSO-3 (C40)   
1 44709U 19073A   24283.41579112 -.00000148  00000+0  00000+0 0  9995
2 44709  55.8577 287.5126 0041201 191.0305 168.8892  1.00267633 18280
BEIDOU-3 M22 (C44)      
1 44793U 19078A   24284.27384065 -.00000037  00000+0  00000+0 0  9996
2 44793  54.4736 321.3637 0004632  14.7499 345.3237  1.86232115 33194
BEIDOU-3 M21 (C43)      
1 44794U 19078B   24284.40334136 -.00000037  00000+0  00000+0 0  9996
2 44794  54.4470 321.3327 0002757 357.4561   2.6027  1.86232596 33204
BEIDOU-3 M19 (C41)      
1 44864U 19090A   24283.56095897  .00000039  00000+0  00000+0 0  9993
2 44864  56.0222  83.2329 0015487 279.2777  68.3256  1.86231634 32760
BEIDOU-3 M20 (C42)      
1 44865U 19090B   24284.52275769  .00000046  00000+0  00000+0 0  9997
2 44865  56.0246  83.2344 0012959 294.0703  68.0727  1.86231518 32771
BEIDOU-3 G2 (C60)       
1 45344U 20017A   24284.56220139 -.00000135  00000+0  00000+0 0  9996
2 45344   2.4691  33.6633 0003724 191.0093  77.4175  1.00270783 17093
BEIDOU-3 G3 (C61)       
1 45807U 20040A   24284.49678044 -.00000349  00000+0  00000+0 0  9997
2 45807   0.9937  53.2730 0002782 305.0840 310.6775  1.00271154 15908
BEIDOU-3 G4 (C62)       
1 56564U 23066A   24284.51438211 -.00000109  00000+0  00000+0 0  9997
2 56564   1.8420 288.6377 0005782 237.9192 198.2411  1.00272867  5238
BEIDOU-3 M28 (C50)      
1 58654U 23207A   24283.94925921  .00000040  00000+0  00000+0 0  9994
2 58654  55.2077  83.1553 0000738 199.6314 160.3857  1.86232153  5389
BEIDOU-3 M26 (C48)      
1 58655U 23207B   24284.28541107  .00000042  00000+0  00000+0 0  9995
2 58655  55.2104  83.1295 0002194 214.8230 145.1833  1.86231675  5371
